{"type": "FeatureCollection", "features": [ {"type": "Feature", "properties": {"norad_id": 31456, "name": "FENGYUN 1C DEB", "group": "fengyun-1c-debris", "lat": 9.615305280716642, "lon": 99.65208632277312, "alt_km": 753.2621088019105, "timestamp": "2025-12-24T16:52:41.814704+00:00", "meta": {"OBJECT_NAME": "FENGYUN 1C DEB", "OBJECT_ID": "1999-025BUU", "EPOCH": "2025-12-24T01:51:01.039104", "MEAN_MOTION": 14.42456551, "ECCENTRICITY": 0.00677136, "INCLINATION": 98.5772, "RA_OF_ASC_NODE": 100.4877, "ARG_OF_PERICENTER": 279.8259, "MEAN_ANOMALY": 79.5289, "EPHEMERIS_TYPE": 0, "CLASSIFICATION_TYPE": "U", "NORAD_CAT_ID": 31456, "ELEMENT_SET_NO": 999, "REV_AT_EPOCH": 97630, "BSTAR": 0.00088166696, "MEAN_MOTION_DOT": 2.955e-05, "MEAN_MOTION_DDOT": 0}, "tle": {"line1": "1 31456U 99025BUU 25358.07709536  .00002955  00000+0  88167-3 0  9997", "line2": "2 31456  98.5772 100.4877 0067713 279.8259  79.5289 14.42456551976304"}}, "geometry": {"type": "Point", "coordinates": [99.65208632277312, 9.615305280716642]}}, {"type": "Feature", "properties": {"norad_id": 31459, "name": "FENGYUN 1C DEB", "group": "fengyun-1c-debris", "lat": 24.727215243069814, "lon": -97.28952044246817, "alt_km": 720.5552802360207, "timestamp": "2025-12-24T16:52:41.814715+00:00", "meta": {"OBJECT_NAME": "FENGYUN 1C DEB", "OBJECT_ID": "1999-025BUX", "EPOCH": "2025-12-12T23:44:38.705568", "MEAN_MOTION": 14.44083824, "ECCENTRICITY": 0.00940456, "INCLINATION": 98.1765, "RA_OF_ASC_NODE": 255.2445, "ARG_OF_PERICENTER": 130.906, "MEAN_ANOMALY": 230.0325, "EPHEMERIS_TYPE": 0, "CLASSIFICATION_TYPE": "U", "NORAD_CAT_ID": 31459, "ELEMENT_SET_NO": 999, "REV_AT_EPOCH": 64561, "BSTAR": 0.0020176648, "MEAN_MOTION_DOT": 7.253e-05, "MEAN_MOTION_DDOT": 0}, "tle": {"line1": "1 31459U 99025BUX 25346.98933687  .00007253  00000+0  20177-2 0  9995", "line2": "2 31459  98.1765 255.2445 0094045 130.9060 230.0325 14.44083824645613"}}, "geometry": {"type": "Point", "coordinates": [-97.28952044246817, 24.727215243069814]}}, {"type": "Feature", "properties": {"norad_id": 31462, "name": "FENGYUN 1C DEB", "group": "fengyun-1c-debris", "lat": -51.44776489334147, "lon": 27.816238779852927, "alt_km": 873.2814049045683, "timestamp": "2025-12-24T16:52:41.814726+00:00", "meta": {"OBJECT_NAME": "FENGYUN 1C DEB", "OBJECT_ID": "1999-025BVA", "EPOCH": "2025-12-22T13:11:27.568896", "MEAN_MOTION": 14.13022344, "ECCENTRICITY": 0.00325464, "INCLINATION": 98.689, "RA_OF_ASC_NODE": 14.663, "ARG_OF_PERICENTER": 176.2989, "MEAN_ANOMALY": 342.0684, "EPHEMERIS_TYPE": 0, "CLASSIFICATION_TYPE": "U", "NORAD_CAT_ID": 31462, "ELEMENT_SET_NO": 999, "REV_AT_EPOCH": 95994, "BSTAR": 0.00028157306, "MEAN_MOTION_DOT": 4.85e-06, "MEAN_MOTION_DDOT": 0}, "tle": {"line1": "1 31462U 99025BVA 25356.54962464  .00000485  00000+0  28157-3 0  9994", "line2": "2 31462  98.6890  14.6630 0032546 176.2989 342.0684 14.13022344959947"}}, "geometry": {"type": "Point", "coordinates": [27.816238779852927, -51.44776489334147]}}, {"type": "Feature", "properties": {"norad_id": 31463, "name": "FENGYUN 1C DEB", "group": "fengyun-1c-debris", "lat": -41.33704936999652, "lon": 152.9647847106172, "alt_km": 895.4149583375138, "timestamp": "2025-12-24T16:52:41.814736+00:00", "meta": {"OBJECT_NAME": "FENGYUN 1C DEB", "OBJECT_ID": "1999-025BVB", "EPOCH": "2025-12-23T04:45:01.858752", "MEAN_MOTION": 14.36987164, "ECCENTRICITY": 0.02131915, "INCLINATION": 99.0817, "RA_OF_ASC_NODE": 339.4644, "ARG_OF_PERICENTER": 9.2607, "MEAN_ANOMALY": 351.2414, "EPHEMERIS_TYPE": 0, "CLASSIFICATION_TYPE": "U", "NORAD_CAT_ID": 31463, "ELEMENT_SET_NO": 999, "REV_AT_EPOCH": 64870, "BSTAR": 0.00056955164, "MEAN_MOTION_DOT": 2.135e-05, "MEAN_MOTION_DDOT": 0}, "tle": {"line1": "1 31463U 99025BVB 25357.19793818  .00002135  00000+0  56955-3 0  9993", "line2": "2 31463  99.0817 339.4644 0213191   9.2607 351.2414 14.36987164648701"}}, "geometry": {"type": "Point", "coordinates": [152.9647847106172, -41.33704936999652]}}, {"type": "Feature", "properties": {"norad_id": 31464, "name": "FENGYUN 1C DEB", "group": "fengyun-1c-debris", "lat": -47.694077048164075, "lon": -144.52701476238093, "alt_km": 828.1052354063931, "timestamp": "2025-12-24T16:52:41.814747+00:00", "meta": {"OBJECT_NAME": "FENGYUN 1C DEB", "OBJECT_ID": "1999-025BVC", "EPOCH": "2025-12-22T09:28:15.906720", "MEAN_MOTION": 14.12487173, "ECCENTRICITY": 0.00435645, "INCLINATION": 98.7934, "RA_OF_ASC_NODE": 42.9998, "ARG_OF_PERICENTER": 214.4792, "MEAN_ANOMALY": 160.9614, "EPHEMERIS_TYPE": 0, "CLASSIFICATION_TYPE": "U", "NORAD_CAT_ID": 31464, "ELEMENT_SET_NO": 999, "REV_AT_EPOCH": 94816, "BSTAR": 0.00027917728, "MEAN_MOTION_DOT": 4.77e-06, "MEAN_MOTION_DDOT": 0}, "tle": {"line1": "1 31464U 99025BVC 25356.39462855  .00000477  00000+0  27918-3 0  9993", "line2": "2 31464  98.7934  42.9998 0043564 214.4792 160.9614 14.12487173948165"}}, "geometry": {"type": "Point", "coordinates": [-144.52701476238093, -47.694077048164075]}}, {"type": "Feature", "properties": {"norad_id": 31466, "name": "FENGYUN 1C DEB", "group": "fengyun-1c-debris", "lat": 24.28878193932323, "lon": -75.17542743765034, "alt_km": 897.5305466232721, "timestamp": "2025-12-24T16:52:41.814758+00:00", "meta": {"OBJECT_NAME": "FENGYUN 1C DEB", "OBJECT_ID": "1999-025BVE", "EPOCH": "2025-12-24T01:31:35.121216", "MEAN_MOTION": 14.18535486, "ECCENTRICITY": 0.0298714, "INCLINATION": 99.0889, "RA_OF_ASC_NODE": 288.311, "ARG_OF_PERICENTER": 276.5409, "MEAN_ANOMALY": 80.1844, "EPHEMERIS_TYPE": 0, "CLASSIFICATION_TYPE": "U", "NORAD_CAT_ID": 31466, "ELEMENT_SET_NO": 999, "REV_AT_EPOCH": 96489, "BSTAR": 0.00017768632, "MEAN_MOTION_DOT": 5.14e-06, "MEAN_MOTION_DDOT": 0}, "tle": {"line1": "1 31466U 99025BVE 25358.06360094  .00000514  00000+0  17769-3 0  9998", "line2": "2 31466  99.0889 288.3110 0298714 276.5409  80.1844 14.18535486964898"}}, "geometry": {"type": "Point", "coordinates": [-75.17542743765034, 24.28878193932323]}}, {"type": "Feature", "properties": {"norad_id": 31468, "name": "FENGYUN 1C DEB", "group": "fengyun-1c-debris", "lat": -50.58683317746198, "lon": 164.3193868560251, "alt_km": 764.2619204014072, "timestamp": "2025-12-24T16:52:41.814768+00:00", "meta": {"OBJECT_NAME": "FENGYUN 1C DEB", "OBJECT_ID": "1999-025BVG", "EPOCH": "2025-12-15T17:40:52.277088", "MEAN_MOTION": 14.46598121, "ECCENTRICITY": 0.01665536, "INCLINATION": 98.1678, "RA_OF_ASC_NODE": 345.7354, "ARG_OF_PERICENTER": 157.6429, "MEAN_ANOMALY": 203.2135, "EPHEMERIS_TYPE": 0, "CLASSIFICATION_TYPE": "U", "NORAD_CAT_ID": 31468, "ELEMENT_SET_NO": 999, "REV_AT_EPOCH": 67415, "BSTAR": 0.00027310227, "MEAN_MOTION_DOT": 1.122e-05, "MEAN_MOTION_DDOT": 0}, "tle": {"line1": "1 31468U 99025BVG 25349.73671617  .00001122  00000+0  27310-3 0  9999", "line2": "2 31468  98.1678 345.7354 0166553 157.6429 203.2135 14.46598121674154"}}, "geometry": {"type": "Point", "coordinates": [164.3193868560251, -50.58683317746198]}}, {"type": "Feature", "properties": {"norad_id": 31473, "name": "FENGYUN 1C DEB", "group": "fengyun-1c-debris", "lat": 17.045168486655406, "lon": 28.901012757799528, "alt_km": 756.1188023722098, "timestamp": "2025-12-24T16:52:41.814779+00:00", "meta": {"OBJECT_NAME": "FENGYUN 1C DEB", "OBJECT_ID": "1999-025BVM", "EPOCH": "2025-12-23T22:52:35.157216", "MEAN_MOTION": 14.29861226, "ECCENTRICITY": 0.0064482, "INCLINATION": 98.5446, "RA_OF_ASC_NODE": 30.8069, "ARG_OF_PERICENTER": 341.5207, "MEAN_ANOMALY": 136.5552, "EPHEMERIS_TYPE": 0, "CLASSIFICATION_TYPE": "U", "NORAD_CAT_ID": 31473, "ELEMENT_SET_NO": 999, "REV_AT_EPOCH": 69681, "BSTAR": 0.0014317, "MEAN_MOTION_DOT": 3.725e-05, "MEAN_MOTION_DDOT": 0}, "tle": {"line1": "1 31473U 99025BVM 25357.95318469  .00003725  00000+0  14317-2 0  9994", "line2": "2 31473  98.5446  30.8069 0064482 341.5207 136.5552 14.29861226696816"}}, "geometry": {"type": "Point", "coordinates": [28.901012757799528, 17.045168486655406]}}, {"type": "Feature", "properties": {"norad_id": 31474, "name": "FENGYUN 1C DEB", "group": "fengyun-1c-debris", "lat": -15.917820924373444, "lon": -137.86602418997217, "alt_km": 813.7648057872366, "timestamp": "2025-12-24T16:52:41.814789+00:00", "meta": {"OBJECT_NAME": "FENGYUN 1C DEB", "OBJECT_ID": "1999-025BVN", "EPOCH": "2025-12-17T20:31:53.420160", "MEAN_MOTION": 14.10616871, "ECCENTRICITY": 0.00720818, "INCLINATION": 99.1448, "RA_OF_ASC_NODE": 37.8022, "ARG_OF_PERICENTER": 192.292, "MEAN_ANOMALY": 167.6494, "EPHEMERIS_TYPE": 0, "CLASSIFICATION_TYPE": "U", "NORAD_CAT_ID": 31474, "ELEMENT_SET_NO": 999, "REV_AT_EPOCH": 95042, "BSTAR": 0.0012018353, "MEAN_MOTION_DOT": 2.151e-05, "MEAN_MOTION_DDOT": 0}, "tle": {"line1": "1 31474U 99025BVN 25351.85547940  .00002151  00000+0  12018-2 0  9994", "line2": "2 31474  99.1448  37.8022 0072081 192.2920 167.6494 14.10616871950423"}}, "geometry": {"type": "Point", "coordinates": [-137.86602418997217, -15.917820924373444]}}, {"type": "Feature", "properties": {"norad_id": 31475, "name": "FENGYUN 1C DEB", "group": "fengyun-1c-debris", "lat": -74.96221342269246, "lon": 32.028841512264094, "alt_km": 922.0138368543385, "timestamp": "2025-12-24T16:52:41.814800+00:00", "meta": {"OBJECT_NAME": "FENGYUN 1C DEB", "OBJECT_ID": "1999-025BVP", "EPOCH": "2025-12-23T22:59:46.307040", "MEAN_MOTION": 14.38250709, "ECCENTRICITY": 0.0211772, "INCLINATION": 98.9391, "RA_OF_ASC_NODE": 247.1174, "ARG_OF_PERICENTER": 74.1506, "MEAN_ANOMALY": 288.2912, "EPHEMERIS_TYPE": 0, "CLASSIFICATION_TYPE": "U", "NORAD_CAT_ID": 31475, "ELEMENT_SET_NO": 999, "REV_AT_EPOCH": 96240, "BSTAR": 0.00069378, "MEAN_MOTION_DOT": 2.684e-05, "MEAN_MOTION_DDOT": 0}, "tle": {"line1": "1 31475U 99025BVP 25357.95817485  .00002684  00000+0  69378-3 0  9999", "line2": "2 31475  98.9391 247.1174 0211772  74.1506 288.2912 14.38250709962402"}}, "geometry": {"type": "Point", "coordinates": [32.028841512264094, -74.96221342269246]}}]}